[
    {
        "Altitude(m)": 612513.9535476585,
        "Argument of Periapsis(deg)": 0.0,
        "Eccentricity": 0.0,
        "Inclination(deg)": 60.0,
        "Latitude(deg)": -28.13603424111775,
        "Longitude(deg)": -122.0869178745945,
        "Mean Anomaly(deg)": 212.7273,
        "RAAN(deg)": 140.0,
        "Satellite Name": "Test1 629",
        "Satellite Number": 629,
        "Semi-Major Axis(m)": 6980739.136638005,
        "Time(s)": 0
    },
    {
        "Altitude(m)": 612708.321900969,
        "Argument of Periapsis(deg)": 0.00010418945913296404,
        "Eccentricity": 0.0,
        "Inclination(deg)": 60.0,
        "Latitude(deg)": -28.6477737779014,
        "Longitude(deg)": -121.72968796501851,
        "Mean Anomaly(deg)": 213.34740614546186,
        "RAAN(deg)": 139.99957995086024,
        "Satellite Name": "Test1 629",
        "Satellite Number": 629,
        "Semi-Major Axis(m)": 6980739.136638005,
        "Time(s)": 10
    }
]